IRIDIUM 144             
1 43249U 18030A   25113.01480661  .00000008  00000+0 -41205-5 0  9997
2 43249  86.3921 106.0788 0002172  94.4822 265.6621 14.34217591369917
IRIDIUM 149             
1 43250U 18030B   25113.71883554  .00000002  00000+0 -62586-5 0  9993
2 43250  86.3919 105.7558 0002236  92.9791 267.1660 14.34217529370032
IRIDIUM 157             
1 43251U 18030C   25113.04017664  .00000116  00000+0  34299-4 0  9995
2 43251  86.3917 106.0836 0002444  82.9671 277.1802 14.34218322369917
IRIDIUM 140             
1 43252U 18030D   25113.96619658  .00000043  00000+0  81931-5 0  9993
2 43252  86.3918 105.7098 0002182  93.2506 266.8940 14.34217595370108
IRIDIUM 145             
1 43253U 18030E   25113.95351198  .00000034  00000+0  48968-5 0  9998
2 43253  86.3919 105.6880 0002376  98.6755 261.4710 14.34217677370037
IRIDIUM 146             
1 43254U 18030F   25113.93448376  .00000025  00000+0  17722-5 0  9996
2 43254  86.3918 105.7101 0002217  99.1480 260.9966 14.34217628370043
IRIDIUM 148             
1 43255U 18030G   25113.69346457  .00000009  00000+0 -37282-5 0  9993
2 43255  86.3922 105.8472 0002370  91.9345 268.2123 14.34217323370049
IRIDIUM 142             
1 43256U 18030H   25113.73152117  .00000044  00000+0  84955-5 0  9994
2 43256  86.3915 105.7356 0002460  99.4386 260.7088 14.34217752370010
